{
  "type": "FeatureCollection",
  "features": [
    {
      "type": "Feature",
      "properties": {
        "norad_id": 43260,
        "name": "GAOFEN-1 03",
        "group": "resource",
        "lat": 10.59272924358568,
        "lon": -135.9068001225712,
        "alt_km": 643.5582908988108,
        "timestamp": "2025-12-10T21:43:21.744160+00:00",
        "meta_object_name": "GAOFEN-1 03",
        "meta_object_id": "2018-031B",
        "meta_epoch": "2025-12-10T14:27:09.635040",
        "meta_mean_motion": 14.76429909,
        "meta_eccentricity": 0.00021231,
        "meta_inclination": 98.0802,
        "meta_ra_of_asc_node": 42.2678,
        "meta_arg_of_pericenter": 331.8878,
        "meta_mean_anomaly": 28.2216,
        "meta_ephemeris_type": 0,
        "meta_classification_type": "U",
        "meta_norad_cat_id": 43260,
        "meta_element_set_no": 999,
        "meta_rev_at_epoch": 41486,
        "meta_bstar": 0.00022406255,
        "meta_mean_motion_dot": 1.506e-05,
        "meta_mean_motion_ddot": 0,
        "tle_line1": "1 43260U 18031B   25344.60219485  .00001506  00000+0  22406-3 0  9999",
        "tle_line2": "2 43260  98.0802  42.2678 0002123 331.8878  28.2216 14.76429909414864"
      },
      "geometry": {
        "type": "Point",
        "coordinates": [
          -135.9068001225712,
          10.59272924358568
        ]
      }
    },
    {
      "type": "Feature",
      "properties": {
        "norad_id": 43262,
        "name": "GAOFEN-1 04",
        "group": "resource",
        "lat": -60.56186857359382,
        "lon": 57.319971263387494,
        "alt_km": 648.0817475106023,
        "timestamp": "2025-12-10T21:43:21.744170+00:00",
        "meta_object_name": "GAOFEN-1 04",
        "meta_object_id": "2018-031D",
        "meta_epoch": "2025-12-10T15:29:42.796608",
        "meta_mean_motion": 14.76441802,
        "meta_eccentricity": 0.00011642,
        "meta_inclination": 98.0805,
        "meta_ra_of_asc_node": 42.4799,
        "meta_arg_of_pericenter": 54.8159,
        "meta_mean_anomaly": 305.3159,
        "meta_ephemeris_type": 0,
        "meta_classification_type": "U",
        "meta_norad_cat_id": 43262,
        "meta_element_set_no": 999,
        "meta_rev_at_epoch": 41486,
        "meta_bstar": 0.00017793079,
        "meta_mean_motion_dot": 1.186e-05,
        "meta_mean_motion_ddot": 0,
        "tle_line1": "1 43262U 18031D   25344.64563422  .00001186  00000+0  17793-3 0  9995",
        "tle_line2": "2 43262  98.0805  42.4799 0001164  54.8159 305.3159 14.76441802414864"
      },
      "geometry": {
        "type": "Point",
        "coordinates": [
          57.319971263387494,
          -60.56186857359382
        ]
      }
    },
    {
      "type": "Feature",
      "properties": {
        "norad_id": 43437,
        "name": "SENTINEL-3B",
        "group": "resource",
        "lat": 70.8698366939885,
        "lon": 24.16145916085589,
        "alt_km": 794.80477914332,
        "timestamp": "2025-12-10T21:43:21.744180+00:00",
        "meta_object_name": "SENTINEL-3B",
        "meta_object_id": "2018-039A",
        "meta_epoch": "2025-12-10T11:17:01.773888",
        "meta_mean_motion": 14.26741565,
        "meta_eccentricity": 0.00015632,
        "meta_inclination": 98.6269,
        "meta_ra_of_asc_node": 49.6878,
        "meta_arg_of_pericenter": 105.1212,
        "meta_mean_anomaly": 255.0141,
        "meta_ephemeris_type": 0,
        "meta_classification_type": "U",
        "meta_norad_cat_id": 43437,
        "meta_element_set_no": 999,
        "meta_rev_at_epoch": 39721,
        "meta_bstar": 0.00011945931,
        "meta_mean_motion_dot": 2.45e-06,
        "meta_mean_motion_ddot": 0,
        "tle_line1": "1 43437U 18039A   25344.47015942  .00000245  00000+0  11946-3 0  9996",
        "tle_line2": "2 43437  98.6269  49.6878 0001563 105.1212 255.0141 14.26741565397213"
      },
      "geometry": {
        "type": "Point",
        "coordinates": [
          24.16145916085589,
          70.8698366939885
        ]
      }
    },
    {
      "type": "Feature",
      "properties": {
        "norad_id": 43461,
        "name": "GAOFEN-5 01",
        "group": "resource",
        "lat": -19.81552642117619,
        "lon": 124.77619014005806,
        "alt_km": 697.6822199808457,
        "timestamp": "2025-12-10T21:43:21.744192+00:00",
        "meta_object_name": "GAOFEN-5 01",
        "meta_object_id": "2018-043A",
        "meta_epoch": "2025-12-10T10:56:38.203872",
        "meta_mean_motion": 14.60406317,
        "meta_eccentricity": 0.00011088,
        "meta_inclination": 98.4323,
        "meta_ra_of_asc_node": 307.3833,
        "meta_arg_of_pericenter": 349.3641,
        "meta_mean_anomaly": 10.7535,
        "meta_ephemeris_type": 0,
        "meta_classification_type": "U",
        "meta_norad_cat_id": 43461,
        "meta_element_set_no": 999,
        "meta_rev_at_epoch": 40414,
        "meta_bstar": 0.00018567509,
        "meta_mean_motion_dot": 8.5e-06,
        "meta_mean_motion_ddot": 0,
        "tle_line1": "1 43461U 18043A   25344.45599773  .00000850  00000+0  18568-3 0  9994",
        "tle_line2": "2 43461  98.4323 307.3833 0001108 349.3641  10.7535 14.60406317404142"
      },
      "geometry": {
        "type": "Point",
        "coordinates": [
          124.77619014005806,
          -19.81552642117619
        ]
      }
    },
    {
      "type": "Feature",
      "properties": {
        "norad_id": 43484,
        "name": "GAOFEN-6",
        "group": "resource",
        "lat": 82.12702215953558,
        "lon": -33.35835074763021,
        "alt_km": 623.9776924836024,
        "timestamp": "2025-12-10T21:43:21.744210+00:00",
        "meta_object_name": "GAOFEN-6",
        "meta_object_id": "2018-048A",
        "meta_epoch": "2025-12-10T14:48:59.586912",
        "meta_mean_motion": 14.76561016,
        "meta_eccentricity": 0.00132952,
        "meta_inclination": 97.8029,
        "meta_ra_of_asc_node": 48.9553,
        "meta_arg_of_pericenter": 69.6137,
        "meta_mean_anomaly": 290.65,
        "meta_ephemeris_type": 0,
        "meta_classification_type": "U",
        "meta_norad_cat_id": 43484,
        "meta_element_set_no": 999,
        "meta_rev_at_epoch": 40556,
        "meta_bstar": 0.00024095518,
        "meta_mean_motion_dot": 1.634e-05,
        "meta_mean_motion_ddot": 0,
        "tle_line1": "1 43484U 18048A   25344.61735633  .00001634  00000+0  24096-3 0  9993",
        "tle_line2": "2 43484  97.8029  48.9553 0013295  69.6137 290.6500 14.76561016405565"
      },
      "geometry": {
        "type": "Point",
        "coordinates": [
          -33.35835074763021,
          82.12702215953558
        ]
      }
    },
    {
      "type": "Feature",
      "properties": {
        "norad_id": 43585,
        "name": "GAOFEN-11 01",
        "group": "resource",
        "lat": 42.764828988745705,
        "lon": -125.47304787109515,
        "alt_km": 418.86441216936964,
        "timestamp": "2025-12-10T21:43:21.744221+00:00",
        "meta_object_name": "GAOFEN-11 01",
        "meta_object_id": "2018-063A",
        "meta_epoch": "2025-12-10T14:55:59.625696",
        "meta_mean_motion": 15.49127759,
        "meta_eccentricity": 0.00045293,
        "meta_inclination": 97.1557,
        "meta_ra_of_asc_node": 47.5739,
        "meta_arg_of_pericenter": 324.2708,
        "meta_mean_anomaly": 35.8239,
        "meta_ephemeris_type": 0,
        "meta_classification_type": "U",
        "meta_norad_cat_id": 43585,
        "meta_element_set_no": 999,
        "meta_rev_at_epoch": 41109,
        "meta_bstar": 0.00044766197,
        "meta_mean_motion_dot": 0.00024289,
        "meta_mean_motion_ddot": 0,
        "tle_line1": "1 43585U 18063A   25344.62221789  .00024289  00000+0  44766-3 0  9992",
        "tle_line2": "2 43585  97.1557  47.5739 0004529 324.2708  35.8239 15.49127759411097"
      },
      "geometry": {
        "type": "Point",
        "coordinates": [
          -125.47304787109515,
          42.764828988745705
        ]
      }
    },
    {
      "type": "Feature",
      "properties": {
        "norad_id": 43613,
        "name": "ICESAT-2",
        "group": "resource",
        "lat": 10.743093411766205,
        "lon": -120.13858526605661,
        "alt_km": 483.8922349880313,
        "timestamp": "2025-12-10T21:43:21.744231+00:00",
        "meta_object_name": "ICESAT-2",
        "meta_object_id": "2018-070A",
        "meta_epoch": "2025-12-10T13:49:06.606624",
        "meta_mean_motion": 15.28306119,
        "meta_eccentricity": 0.0002501,
        "meta_inclination": 92.0044,
        "meta_ra_of_asc_node": 240.1533,
        "meta_arg_of_pericenter": 154.3618,
        "meta_mean_anomaly": 205.7755,
        "meta_ephemeris_type": 0,
        "meta_classification_type": "U",
        "meta_norad_cat_id": 43613,
        "meta_element_set_no": 999,
        "meta_rev_at_epoch": 40365,
        "meta_bstar": 0.00067335508,
        "meta_mean_motion_dot": 0.00018577,
        "meta_mean_motion_ddot": 0,
        "tle_line1": "1 43613U 18070A   25344.57577091  .00018577  00000+0  67336-3 0  9997",
        "tle_line2": "2 43613  92.0044 240.1533 0002501 154.3618 205.7755 15.28306119403657"
      },
      "geometry": {
        "type": "Point",
        "coordinates": [
          -120.13858526605661,
          10.743093411766205
        ]
      }
    }
  ]
}